CCSDS_OMM_VERS = 2.0
CREATION_DATE  = 
ORIGINATOR     = 

OBJECT_NAME    = CSG-3
OBJECT_ID      = 2026-001A
CENTER_NAME    = EARTH
REF_FRAME      = TEME
TIME_SYSTEM    = UTC
MEAN_ELEMENT_THEORY = SGP/SGP4

EPOCH          = 2026-01-31T05:17:09.035808
MEAN_MOTION    = 14.82339651
ECCENTRICITY   = .0002128
INCLINATION    = 97.8670
RA_OF_ASC_NODE = 216.8089
ARG_OF_PERICENTER = 84.0655
MEAN_ANOMALY   = 276.0801

EPHEMERIS_TYPE = 0
CLASSIFICATION_TYPE = U
NORAD_CAT_ID   = 67304
ELEMENT_SET_NO = 999
REV_AT_EPOCH   = 417
BSTAR          = -.6183E-3
MEAN_MOTION_DOT = -.4992E-4
MEAN_MOTION_DDOT = 0

CCSDS_OMM_VERS = 2.0
CREATION_DATE  = 
ORIGINATOR     = 

OBJECT_NAME    = STARLINK-36490
OBJECT_ID      = 2026-002A
CENTER_NAME    = EARTH
REF_FRAME      = TEME
TIME_SYSTEM    = UTC
MEAN_ELEMENT_THEORY = SGP/SGP4

EPOCH          = 2026-01-31T04:00:01.999584
MEAN_MOTION    = 15.50539448
ECCENTRICITY   = .0002021
INCLINATION    = 42.9998
RA_OF_ASC_NODE = 178.5256
ARG_OF_PERICENTER = 269.9064
MEAN_ANOMALY   = 129.1825

EPHEMERIS_TYPE = 0
CLASSIFICATION_TYPE = U
NORAD_CAT_ID   = 67305
ELEMENT_SET_NO = 999
REV_AT_EPOCH   = 544
BSTAR          = .63002E-3
MEAN_MOTION_DOT = .36741E-3
MEAN_MOTION_DDOT = 0

CCSDS_OMM_VERS = 2.0
CREATION_DATE  = 
ORIGINATOR     = 

OBJECT_NAME    = STARLINK-36488
OBJECT_ID      = 2026-002B
CENTER_NAME    = EARTH
REF_FRAME      = TEME
TIME_SYSTEM    = UTC
MEAN_ELEMENT_THEORY = SGP/SGP4

EPOCH          = 2026-01-31T04:00:01.999584
MEAN_MOTION    = 15.50540553
ECCENTRICITY   = .0001655
INCLINATION    = 42.9995
RA_OF_ASC_NODE = 178.5212
ARG_OF_PERICENTER = 270.1322
MEAN_ANOMALY   = 130.8693

EPHEMERIS_TYPE = 0
CLASSIFICATION_TYPE = U
NORAD_CAT_ID   = 67306
ELEMENT_SET_NO = 999
REV_AT_EPOCH   = 538
BSTAR          = .601E-3
MEAN_MOTION_DOT = .35026E-3
MEAN_MOTION_DDOT = 0

CCSDS_OMM_VERS = 2.0
CREATION_DATE  = 
ORIGINATOR     = 

OBJECT_NAME    = STARLINK-36481
OBJECT_ID      = 2026-002C
CENTER_NAME    = EARTH
REF_FRAME      = TEME
TIME_SYSTEM    = UTC
MEAN_ELEMENT_THEORY = SGP/SGP4

EPOCH          = 2026-01-31T04:00:01.999584
MEAN_MOTION    = 15.50540928
ECCENTRICITY   = .0001923
INCLINATION    = 42.9996
RA_OF_ASC_NODE = 178.5114
ARG_OF_PERICENTER = 272.4120
MEAN_ANOMALY   = 132.4254

EPHEMERIS_TYPE = 0
CLASSIFICATION_TYPE = U
NORAD_CAT_ID   = 67307
ELEMENT_SET_NO = 999
REV_AT_EPOCH   = 538
BSTAR          = .59953E-3
MEAN_MOTION_DOT = .3494E-3
MEAN_MOTION_DDOT = 0

CCSDS_OMM_VERS = 2.0
CREATION_DATE  = 
ORIGINATOR     = 

OBJECT_NAME    = STARLINK-36449
OBJECT_ID      = 2026-002D
CENTER_NAME    = EARTH
REF_FRAME      = TEME
TIME_SYSTEM    = UTC
MEAN_ELEMENT_THEORY = SGP/SGP4

EPOCH          = 2026-01-31T04:00:01.999584
MEAN_MOTION    = 15.50541708
ECCENTRICITY   = .0001922
INCLINATION    = 42.9997
RA_OF_ASC_NODE = 178.5064
ARG_OF_PERICENTER = 272.3268
MEAN_ANOMALY   = 134.4258

EPHEMERIS_TYPE = 0
CLASSIFICATION_TYPE = U
NORAD_CAT_ID   = 67308
ELEMENT_SET_NO = 999
REV_AT_EPOCH   = 544
BSTAR          = .60501E-3
MEAN_MOTION_DOT = .35265E-3
MEAN_MOTION_DDOT = 0

CCSDS_OMM_VERS = 2.0
CREATION_DATE  = 
ORIGINATOR     = 

OBJECT_NAME    = STARLINK-36482
OBJECT_ID      = 2026-002E
CENTER_NAME    = EARTH
REF_FRAME      = TEME
TIME_SYSTEM    = UTC
MEAN_ELEMENT_THEORY = SGP/SGP4

EPOCH          = 2026-01-31T04:00:01.999584
MEAN_MOTION    = 15.50540857
ECCENTRICITY   = .0001982
INCLINATION    = 42.9994
RA_OF_ASC_NODE = 178.4837
ARG_OF_PERICENTER = 272.6196
MEAN_ANOMALY   = 143.7150

EPHEMERIS_TYPE = 0
CLASSIFICATION_TYPE = U
NORAD_CAT_ID   = 67309
ELEMENT_SET_NO = 999
REV_AT_EPOCH   = 538
BSTAR          = .66417E-3
MEAN_MOTION_DOT = .38763E-3
MEAN_MOTION_DDOT = 0

CCSDS_OMM_VERS = 2.0
CREATION_DATE  = 
ORIGINATOR     = 

OBJECT_NAME    = STARLINK-36491
OBJECT_ID      = 2026-002F
CENTER_NAME    = EARTH
REF_FRAME      = TEME
TIME_SYSTEM    = UTC
MEAN_ELEMENT_THEORY = SGP/SGP4

EPOCH          = 2026-01-31T04:00:01.999584
MEAN_MOTION    = 15.50528767
ECCENTRICITY   = .0001634
INCLINATION    = 42.9995
RA_OF_ASC_NODE = 178.5178
ARG_OF_PERICENTER = 275.4257
MEAN_ANOMALY   = 127.5091

EPHEMERIS_TYPE = 0
CLASSIFICATION_TYPE = U
NORAD_CAT_ID   = 67310
ELEMENT_SET_NO = 999
REV_AT_EPOCH   = 538
BSTAR          = .81904E-3
MEAN_MOTION_DOT = .47916E-3
MEAN_MOTION_DDOT = 0

CCSDS_OMM_VERS = 2.0
CREATION_DATE  = 
ORIGINATOR     = 

OBJECT_NAME    = STARLINK-36495
OBJECT_ID      = 2026-002G
CENTER_NAME    = EARTH
REF_FRAME      = TEME
TIME_SYSTEM    = UTC
MEAN_ELEMENT_THEORY = SGP/SGP4

EPOCH          = 2026-01-31T04:00:01.999584
MEAN_MOTION    = 15.50539100
ECCENTRICITY   = .000194
INCLINATION    = 42.9996
RA_OF_ASC_NODE = 178.5018
ARG_OF_PERICENTER = 271.5270
MEAN_ANOMALY   = 137.1480

EPHEMERIS_TYPE = 0
CLASSIFICATION_TYPE = U
NORAD_CAT_ID   = 67311
ELEMENT_SET_NO = 999
REV_AT_EPOCH   = 554
BSTAR          = .6204E-3
MEAN_MOTION_DOT = .36172E-3
MEAN_MOTION_DDOT = 0

CCSDS_OMM_VERS = 2.0
CREATION_DATE  = 
ORIGINATOR     = 

OBJECT_NAME    = STARLINK-36485
OBJECT_ID      = 2026-002H
CENTER_NAME    = EARTH
REF_FRAME      = TEME
TIME_SYSTEM    = UTC
MEAN_ELEMENT_THEORY = SGP/SGP4

EPOCH          = 2026-01-31T04:00:01.999584
MEAN_MOTION    = 15.50540469
ECCENTRICITY   = .0002088
INCLINATION    = 42.9996
RA_OF_ASC_NODE = 178.4971
ARG_OF_PERICENTER = 272.7705
MEAN_ANOMALY   = 137.8206

EPHEMERIS_TYPE = 0
CLASSIFICATION_TYPE = U
NORAD_CAT_ID   = 67312
ELEMENT_SET_NO = 999
REV_AT_EPOCH   = 538
BSTAR          = .60358E-3
MEAN_MOTION_DOT = .35179E-3
MEAN_MOTION_DDOT = 0

CCSDS_OMM_VERS = 2.0
CREATION_DATE  = 
ORIGINATOR     = 

OBJECT_NAME    = STARLINK-36445
OBJECT_ID      = 2026-002J
CENTER_NAME    = EARTH
REF_FRAME      = TEME
TIME_SYSTEM    = UTC
MEAN_ELEMENT_THEORY = SGP/SGP4

EPOCH          = 2026-01-31T04:00:01.999584
MEAN_MOTION    = 15.50533669
ECCENTRICITY   = .0001684
INCLINATION    = 42.9996
RA_OF_ASC_NODE = 178.4927
ARG_OF_PERICENTER = 265.1583
MEAN_ANOMALY   = 147.3522

EPHEMERIS_TYPE = 0
CLASSIFICATION_TYPE = U
NORAD_CAT_ID   = 67313
ELEMENT_SET_NO = 999
REV_AT_EPOCH   = 554
BSTAR          = .85645E-3
MEAN_MOTION_DOT = .50144E-3
MEAN_MOTION_DDOT = 0

CCSDS_OMM_VERS = 2.0
CREATION_DATE  = 
ORIGINATOR     = 

OBJECT_NAME    = STARLINK-36476
OBJECT_ID      = 2026-002K
CENTER_NAME    = EARTH
REF_FRAME      = TEME
TIME_SYSTEM    = UTC
MEAN_ELEMENT_THEORY = SGP/SGP4

EPOCH          = 2026-01-31T04:00:01.999584
MEAN_MOTION    = 15.50543076
ECCENTRICITY   = .0001979
INCLINATION    = 42.9994
RA_OF_ASC_NODE = 178.4881
ARG_OF_PERICENTER = 275.3345
MEAN_ANOMALY   = 139.0836

EPHEMERIS_TYPE = 0
CLASSIFICATION_TYPE = U
NORAD_CAT_ID   = 67314
ELEMENT_SET_NO = 999
REV_AT_EPOCH   = 538
BSTAR          = .62224E-3
MEAN_MOTION_DOT = .36286E-3
MEAN_MOTION_DDOT = 0

CCSDS_OMM_VERS = 2.0
CREATION_DATE  = 
ORIGINATOR     = 

OBJECT_NAME    = STARLINK-36463
OBJECT_ID      = 2026-002L
CENTER_NAME    = EARTH
REF_FRAME      = TEME
TIME_SYSTEM    = UTC
MEAN_ELEMENT_THEORY = SGP/SGP4

EPOCH          = 2026-01-31T04:00:01.999584
MEAN_MOTION    = 15.50614619
ECCENTRICITY   = .0001981
INCLINATION    = 42.9995
RA_OF_ASC_NODE = 178.4779
ARG_OF_PERICENTER = 273.0057
MEAN_ANOMALY   = 145.2279

EPHEMERIS_TYPE = 0
CLASSIFICATION_TYPE = U
NORAD_CAT_ID   = 67315
ELEMENT_SET_NO = 999
REV_AT_EPOCH   = 544
BSTAR          = -.15591E-2
MEAN_MOTION_DOT = -.90872E-3
MEAN_MOTION_DDOT = 0

