CSG-3                   
1 67304U 26001A   26031.22024347 -.00004992  00000+0 -61830-3 0  9991
2 67304  97.8670 216.8089 0002128  84.0655 276.0801 14.82339651  4172
STARLINK-36490          
1 67305U 26002A   26031.16668981  .00036741  00000+0  63002-3 0  9992
2 67305  42.9998 178.5256 0002021 269.9064 129.1825 15.50539448  5444
STARLINK-36488          
1 67306U 26002B   26031.16668981  .00035026  00000+0  60100-3 0  9994
2 67306  42.9995 178.5212 0001655 270.1322 130.8693 15.50540553  5381
STARLINK-36481          
1 67307U 26002C   26031.16668981  .00034940  00000+0  59953-3 0  9993
2 67307  42.9996 178.5114 0001923 272.4120 132.4254 15.50540928  5380
STARLINK-36449          
1 67308U 26002D   26031.16668981  .00035265  00000+0  60501-3 0  9996
2 67308  42.9997 178.5064 0001922 272.3268 134.4258 15.50541708  5447
STARLINK-36482          
1 67309U 26002E   26031.16668981  .00038763  00000+0  66417-3 0  9995
2 67309  42.9994 178.4837 0001982 272.6196 143.7150 15.50540857  5382
STARLINK-36491          
1 67310U 26002F   26031.16668981  .00047916  00000+0  81904-3 0  9995
2 67310  42.9995 178.5178 0001634 275.4257 127.5091 15.50528767  5387
STARLINK-36495          
1 67311U 26002G   26031.16668981  .00036172  00000+0  62040-3 0  9998
2 67311  42.9996 178.5018 0001940 271.5270 137.1480 15.50539100  5544
STARLINK-36485          
1 67312U 26002H   26031.16668981  .00035179  00000+0  60358-3 0  9995
2 67312  42.9996 178.4971 0002088 272.7705 137.8206 15.50540469  5387
STARLINK-36445          
1 67313U 26002J   26031.16668981  .00050144  00000+0  85645-3 0  9991
2 67313  42.9996 178.4927 0001684 265.1583 147.3522 15.50533669  5549
STARLINK-36476          
1 67314U 26002K   26031.16668981  .00036286  00000+0  62224-3 0  9991
2 67314  42.9994 178.4881 0001979 275.3345 139.0836 15.50543076  5384
STARLINK-36463          
1 67315U 26002L   26031.16668981 -.00090872  00000+0 -15591-2 0  9999
2 67315  42.9995 178.4779 0001981 273.0057 145.2279 15.50614619  5449
